[{"OBJECT_NAME":"STARLINK-3622","OBJECT_ID":"2022-017A","EPOCH":"2026-03-09T22:50:56.923872","MEAN_MOTION":15.08834684,"ECCENTRICITY":0.00012069,"INCLINATION":53.2189,"RA_OF_ASC_NODE":337.9436,"ARG_OF_PERICENTER":94.8806,"MEAN_ANOMALY":265.2324,"EPHEMERIS_TYPE":0,"CLASSIFICATION_TYPE":"U","NORAD_CAT_ID":51768,"ELEMENT_SET_NO":999,"REV_AT_EPOCH":22408,"BSTAR":6.8152106e-5,"MEAN_MOTION_DOT":7.97e-6,"MEAN_MOTION_DDOT":0},{"OBJECT_NAME":"COSMOS 2251 DEB","OBJECT_ID":"1993-036EU","EPOCH":"2026-03-09T14:44:02.306976","MEAN_MOTION":15.10275873,"ECCENTRICITY":0.0002082,"INCLINATION":74.0027,"RA_OF_ASC_NODE":262.4484,"ARG_OF_PERICENTER":258.1067,"MEAN_ANOMALY":101.9891,"EPHEMERIS_TYPE":0,"CLASSIFICATION_TYPE":"U","NORAD_CAT_ID":33939,"ELEMENT_SET_NO":999,"REV_AT_EPOCH":90059,"BSTAR":0.0040153,"MEAN_MOTION_DOT":0.00066338,"MEAN_MOTION_DDOT":0}]
